satname,norad_id,inclination_deg,eccentricity,mean_motion_rev_per_day,perigee_km,apogee_km,l1,l2
STARLINK-1540,46051,53.1592,0.000134,15.30201429,474.29245408066254,476.1291512917833,1 46051U 20055AA  26124.52805750  .00005965  00000+0  21333-3 0  9994,2 46051  53.1592 214.4782 0001340  85.5198 274.5956 15.30201429317630
STARLINK-1541,46052,53.159,0.0001582,15.71710004,352.9445488374995,355.0746000136469,1 46052U 20055AB  26124.91668980  .00767516  00000+0  53131-2 0  9997,2 46052  53.1590 208.1351 0001582  77.4747 108.5422 15.71710004  5917
STARLINK-1543,46053,53.1602,0.0001505,15.31711833,469.6739712163244,471.7354725746154,1 46053U 20055AC  26124.57606887 -.00002323  00000+0 -63084-4 0  9998,2 46053  53.1602 214.1810 0001505  60.1895 299.9256 15.31711833317639
STARLINK-1548,46054,53.1573,0.0002152,15.31698458,469.2707125326997,472.2184711698319,1 46054U 20055AD  26124.52480198  .00007925  00000+0  26690-3 0  9991,2 46054  53.1573 214.4916 0002152  96.4427 263.6819 15.31698458317628
STARLINK-1554,46055,53.1592,0.0001984,15.31691574,469.4062906291574,472.12393498751953,1 46055U 20055AE  26124.50616229  .00013941  00000+0  46028-3 0  9998,2 46055  53.1592 214.5249 0001984  90.7226 269.4003 15.31691574317627
STARLINK-1564,46058,53.1582,0.000122,15.30199598,474.3801606202205,476.0523788180317,1 46058U 20055AH  26124.52708630  .00007195  00000+0  25481-3 0  9995,2 46058  53.1582 215.0089 0001220  81.7461 278.3678 15.30199598317615
STARLINK-1570,46059,53.1587,0.0001316,15.31704001,469.8267578357936,471.6293791218177,1 46059U 20055AJ  26124.53410153  .00011881  00000+0  39396-3 0  9994,2 46059  53.1587 214.2788 0001316  83.6280 276.4871 15.31704001317586
STARLINK-1572,46060,53.1598,0.0001469,15.30192857,474.2296366607061,476.2431577648067,1 46060U 20055AK  26124.50808834  .00009294  00000+0  32559-3 0  9999,2 46060  53.1598 214.8445 0001469  94.1835 265.9334 15.30192857317584
STARLINK-1573,46061,53.1588,0.0001138,15.31715027,469.9158037823454,471.47459799126773,1 46061U 20055AL  26124.52011942  .00009511  00000+0  31771-3 0  9995,2 46061  53.1588 214.3107 0001138  79.2876 280.8254 15.31715027317629
STARLINK-1577,46063,53.1589,0.0001209,15.31706838,469.8915848149609,471.54763834363985,1 46063U 20055AN  26124.67857921  .00011013  00000+0  36606-3 0  9990,2 46063  53.1589 213.5678 0001209  98.9576 261.1562 15.31706838317646
STARLINK-1583,46064,53.1571,0.0001361,15.30150345,474.4305729127891,476.2960957037876,1 46064U 20055AP  26124.53755362 -.00013025  00000+0 -42907-3 0  9990,2 46064  53.1571 214.4547 0001361  70.5469 289.5678 15.30150345317613
STARLINK-1536,46070,53.1603,0.0001358,15.31715591,469.76344847559085,471.62359084473064,1 46070U 20055AV  26124.49816751  .00002668  00000+0  97680-4 0  9990,2 46070  53.1603 202.2935 0001358  87.1294 272.9863 15.31715591317789
STARLINK-1542,46073,53.1322,0.0001652,15.25745816,487.4124279537609,489.68118028264234,1 46073U 20055AY  26124.91668980  .00063830  00000+0  24608-2 0  9995,2 46073  53.1322 203.1302 0001652  66.7008  45.6948 15.25745816  5836
STARLINK-1549,46074,53.0529,0.0002949,15.27060087,482.58252127100604,486.63016729546416,1 46074U 20055AZ  26124.53102525  .00040808  00000+0  15213-2 0  9994,2 46074  53.0529 201.7878 0002949   7.0594 353.0445 15.27060087317774
STARLINK-1551,46075,53.1581,0.0001496,15.30197241,474.19804460641535,476.2485700103625,1 46075U 20055BA  26124.58334120  .00009381  00000+0  32849-3 0  9994,2 46075  53.1581 201.4381 0001496  81.9697 278.1473 15.30197241317798
STARLINK-1552,46076,53.1604,0.0001437,15.30194977,474.245238385387,476.2148960805098,1 46076U 20055BB  26124.53486600  .00010399  00000+0  36280-3 0  9995,2 46076  53.1604 201.5813 0001437  85.4675 274.6490 15.30194977317777
STARLINK-1559,46077,53.0233,0.0002614,15.35242614,458.4124180716508,461.98750063400075,1 46077U 20055BC  26124.45262832  .00042610  00000+0  12315-2 0  9999,2 46077  53.0233 173.2321 0002614 350.2768   9.8182 15.35242614318132
STARLINK-1566,46079,53.1601,0.000155,15.31669861,469.7682496294301,471.89142934967094,1 46079U 20055BE  26124.66668980  .00057581  00000+0  18547-2 0  9994,2 46079  53.1601 200.8818 0001550  85.4945 225.8689 15.31669861  5738
STARLINK-1568,46080,53.0578,0.0004625,15.51279854,409.8473444997153,416.12913534664494,1 46080U 20055BF  26124.69785406  .00044432  00000+0  74816-3 0  9995,2 46080  53.0578 124.7577 0004625 353.1621   6.9324 15.51279854318877
STARLINK-1578,46082,53.1593,0.00012,15.3173433,469.8158082340342,471.45951415271975,1 46082U 20055BH  26124.91668980 -.00010431  00000+0 -32446-3 0  9996,2 46082  53.1593 200.2351 0001200  66.3894 160.0284 15.31734330  5613
STARLINK-1579,46083,53.1616,0.0001223,15.31711198,469.8690011996223,471.544228347796,1 46083U 20055BJ  26124.53570160  .00002006  00000+0  76353-4 0  9990,2 46083  53.1616 201.5407 0001223  71.5168 288.5966 15.31711198317787
STARLINK-1593,46119,53.0247,0.0010712,16.25198668,198.42225163148032,212.52698115844487,1 46119U 20057C   26124.89143172  .03750798  11943-4  12183-2 0  9993,2 46119  53.0247 344.4006 0010712 259.6602 100.3230 16.25198668316917
STARLINK-1622,46128,53.0191,0.0002302,15.75245656,342.38480923568477,345.4796499089807,1 46128U 20057M   26124.91668980  .00111528  00000+0  72179-3 0  9993,2 46128  53.0191 306.2090 0002302 321.8097 359.2560 15.75245656  5774
STARLINK-1623,46129,53.046,8.2e-05,15.68314937,363.1690132767453,364.27467812744,1 46129U 20057N   26124.77816823  .00087812  00000+0  76455-3 0  9998,2 46129  53.0460 342.9739 0000820 175.9091 184.1932 15.68314937315678
STARLINK-1624,46130,53.0334,0.000695,15.91970575,292.129885139846,301.40800440307703,1 46130U 20057P   26124.91668980  .00453760  90501-4  13446-2 0  9994,2 46130  53.0334 310.9855 0006950 244.8805 210.5478 15.91970575  5849
STARLINK-1596,46141,53.039,0.0002183,15.53995363,403.59378325218313,406.5553334185515,1 46141U 20057AA  26124.80319509  .00101303  00000+0  15273-2 0  9997,2 46141  53.0390 321.7304 0002183 244.3366 115.7418 15.53995363315971
STARLINK-1597,46142,53.0458,0.0003222,15.67928352,362.6573882340863,367.0025561509674,1 46142U 20057AB  26124.11114401  .00092508  00000+0  81736-3 0  9990,2 46142  53.0458  25.9363 0003222  55.4328 304.6992 15.67928352315008
STARLINK-1606,46144,53.0405,0.0003835,15.77821598,334.0388573300188,339.18907131965625,1 46144U 20057AD  26124.91668980  .00093645  00000+0  54266-3 0  9997,2 46144  53.0405 338.1064 0003835 186.8902  59.5379 15.77821598  5978
